#dP2019  5  8  0  0  0.00000000      96 __u+U ITR00 FIT  IAC
## 2052 259200.00000000   900.00000000 58611 0.0000000000000
+   98   C01C02C03C04C05C06C07C08C09C10C11C12C13C14C16E01E02
+        E03E04E05E07E08E09E11E12E13E14E15E18E19E21E24E25E26
+        E27E30E31E33E36G01G02G03G04G05G06G07G08G09G10G11G12
+        G13G14G15G16G17G18G19G20G21G22G23G24G25G26G27G28G29
+        G30G31G32J01J02J03J07R01R02R03R04R05R07R08R09R10R11
+        R13R14R15R16R17R18R19R20R21R22R23R24R26  0  0  0  0
++        12 12 12 12 12  9  9  9  9  8  8  7  8  8  9  5  5
++         5  5  0  5  5  5  4  5  5  5  5  5  5  5  5  6  5
++         5  5  5  5  5  3  3  3  4  3  3  3  3  3  3  3  3
++         3  3  3  3  3  3  3  3  3  3  3  3  3  3  3  3  3
++         3  3  3  9 10 10 15  5  5  6  5  5  5  5  5  5  5
++         6  5  5  5  5  5  6  5  5  5  5  5  9  0  0  0  0
%c M  cc GPS ccc cccc cccc cccc cccc ccccc ccccc ccccc ccccc
%c cc cc ccc ccc cccc cccc cccc cccc ccccc ccccc ccccc ccccc
%f  0.0000000  0.000000000  0.00000000000  0.000000000000000
%f  0.0000000  0.000000000  0.00000000000  0.000000000000000
%i    0    0    0    0      0      0      0      0         0
%i    0    0    0    0      0      0      0      0         0
/* INFORMATION & ANALYSIS CENTER (IAC) OF MCC   (RAPID DATA)
/* S/V CLOCKS ARE ALIGNED TO GPS & GLONASS TIME RESPECTIVELY
/* USING THE BROADCAST EPHEMERIS                            
/* PCV:IGS14_2045 OL/AL:FES2004  NONE     YN ORB:CoN CLK:CoN
*  2019 05 08  8 45  0.00000000
PC01 -32330.606615  27045.007423    629.707405 999999.999999
PC02   4338.760187  41951.432708    -40.151928 999999.999999
PC03 -14807.799637  39455.913988    585.214863 999999.999999
PC04 -39605.304971  14457.847027    490.930354 999999.999999
PC05  21722.754051  36114.297211    -96.670617 999999.999999
PC06 -18416.184244  20195.028113 -31860.090441 999999.999999
PC07 -21953.061476  35484.815632   4017.639508 999999.999999
PC08  -6110.786510  31105.672326  28027.820640 999999.999999
PC09    995.535313  24905.480423 -33760.661920 999999.999999
PC10  -9997.419778  36993.754487  17272.325523 999999.999999
PC11  10246.467099 -11524.107121 -23208.113636 999999.999999
PC12  24780.516320  10726.003225  -7136.874364 999999.999999
PC13   4782.695958  39025.107552  15605.077619 999999.999999
PC14  24766.875436 -12807.798773    184.146766 999999.999999
PC16 -13065.392680  21768.416761 -33648.671133 999999.999999
PE01  19538.587159 -11150.007341  19234.640257 999999.999999
PE02 -19545.208631  11196.146431 -19214.264627 999999.999999
PE03 -28972.142906   4691.097144  -3782.667453 999999.999999
PE04  16506.291215 -15009.183897  19464.948040 999999.999999
PE05      0.000000      0.000000      0.000000 999999.999999
PE07   5800.022364  16575.059636 -23815.431891 999999.999999
PE08 -16296.876116  15047.030055 -19584.147557 999999.999999
PE09  -5922.774117 -16397.033837  23932.008048 999999.999999
PE11 -10756.047431 -26096.817815  -8958.473211 999999.999999
PE12   5960.660750 -17994.022306 -22736.643202 999999.999999
PE13  10767.718909  26008.221829   9140.246029 999999.999999
PE14  -6241.509924  13472.207058  18006.555518 999999.999999
PE15  -5561.022716  18208.293474  22670.069464 999999.999999
PE18   6142.965050 -19818.791687 -25190.492992 999999.999999
PE19  29329.981063  -3474.421386   1950.007377 999999.999999
PE21  13067.776419  10153.789050  24533.711823 999999.999999
PE24    877.679594 -25166.367082 -15562.077111 999999.999999
PE25 -13032.983159 -10223.576068 -24532.598925 999999.999999
PE26  20741.176630  18726.780991  -9750.535257 999999.999999
PE27  -1070.598858  25332.665667  15270.480871 999999.999999
PE30 -14557.751274  25641.838669  -2652.053303 999999.999999
PE31  14550.738330 -25614.237303   2934.535780 999999.999999
PE33  18664.987623    259.472801 -22961.167023 999999.999999
PE36 -20851.572590 -18594.712124   9804.304297 999999.999999
PG01 -14623.070362   2505.296643  21856.803410 999999.999999
PG02  14221.931790  19407.826926 -10813.140939 999999.999999
PG03 -21738.400165   9868.302951  11513.722995 999999.999999
PG04  -7574.646192  13455.715659 -21597.813784 999999.999999
PG05  13761.784126   7897.193846 -21439.746148 999999.999999
PG06   6612.162922  25702.548159   -126.715502 999999.999999
PG07  -9067.863510  16839.615660 -17968.916137 999999.999999
PG08 -26036.233303  -5197.999660   2605.730913 999999.999999
PG09 -14170.203092  10740.281540 -19773.923282 999999.999999
PG10   6802.263679 -20958.942672  14748.496251 999999.999999
PG11 -18854.992837   -764.163648  18072.058001 999999.999999
PG12  21977.176016  -7854.476459  12297.183630 999999.999999
PG13  22701.418854  13074.972732  -4627.713187 999999.999999
PG14 -11675.348812 -17084.586327  17074.210540 999999.999999
PG15  26421.905747   2388.399127   3330.487531 999999.999999
PG16 -13565.132790  -7651.993656 -21762.271361 999999.999999
PG17   2558.255250  15981.394924  21484.124755 999999.999999
PG18 -16399.852056  -7605.576825  19017.252095 999999.999999
PG19  10801.515015  16692.037570  17267.981756 999999.999999
PG20  13012.831385 -22407.912726   5358.323173 999999.999999
PG21   3755.231703 -21757.033002 -14072.607504 999999.999999
PG22 -20211.788619   3341.824662  17102.481172 999999.999999
PG23 -23814.191261   2396.771901 -11602.298428 999999.999999
PG24  16262.289354    967.348411  20869.643190 999999.999999
PG25  19676.373935 -17553.535844   1458.022529 999999.999999
PG26  -4955.502139 -15947.375850 -20635.308766 999999.999999
PG27 -22234.227489 -12213.259608  -8480.025249 999999.999999
PG28  -9036.230894  20329.893731  15185.247839 999999.999999
PG29  18566.860971  -6061.746350 -18034.692777 999999.999999
PG30  -1984.358581  24621.173345  -9482.895075 999999.999999
PG31  -6869.765131 -25341.781245  -1777.993116 999999.999999
PG32  -5719.716515 -16366.726200  20209.245959 999999.999999
PJ01 -35059.216510  22140.009862  -2901.260362 999999.999999
PJ02 -20841.431908  32658.153334 -12406.448898 999999.999999
PJ03 -28464.941969  22500.685453  26587.000426 999999.999999
PJ07 -25355.346220  33687.921205    -28.851706 999999.999999
PR01 -13157.781341  12948.098724 -17586.767419 999999.999999
PR02   8202.987946   8724.318425 -22470.996997 999999.999999
PR03  22242.427802   -289.046397 -12398.784290 999999.999999
PR04  23098.624566  -9390.234207   5365.495007 999999.999999
PR05  11111.079044 -12631.666700  19182.367397 999999.999999
PR07 -22510.165021    515.460698  12062.743453 999999.999999
PR08 -23428.056596   9010.572476  -4502.002406 999999.999999
PR09  -3782.567514 -18766.327635 -16885.544678 999999.999999
PR10  -9995.279304  -4139.139914 -23127.514218 999999.999999
PR11 -12013.993211  15110.979347 -16637.640205 999999.999999
PR13   2910.831826  19888.023583  15680.064590 999999.999999
PR14  10330.787267   3882.285220  23003.326044 999999.999999
PR15  12021.683816 -14379.560337  17317.760644 999999.999999
PR16   6345.126868 -24600.243465   1431.024670 999999.999999
PR17  19743.278297  13067.512361  -9522.408343 999999.999999
PR18  13755.919348   -174.121774 -21451.304916 999999.999999
PR19    708.873726 -13207.965273 -21811.850294 999999.999999
PR20 -14116.284022 -19619.226856  -8231.405223 999999.999999
PR21 -19667.124269 -12669.890714  10145.692349 999999.999999
PR22 -12122.025101   2215.245107  22359.930018 999999.999999
PR23   3996.320768  16109.762580  19357.904721 999999.999999
PR24  15422.582652  19217.461966   6526.813564 999999.999999
PR26 -12843.481564 -19261.085121 -10677.629343 999999.999999
EOF
